start=new Date('2022-02-23T00:00:00.000Z').valueOf();
sats=[{"TIME_SYSTEM":"UTC","FILE":"3314780","ECCENTRICITY":"0.00020940","GP_ID":"196683226","ARG_OF_PERICENTER":"54.6940","REV_AT_EPOCH":"9402","LAUNCH_DATE":"2020-06-13","EPHEMERIS_TYPE":"0","SITE":"AFETR","MEAN_MOTION_DOT":"-0.00001132","ELEMENT_SET_NO":"999","TLE_LINE1":"1 45766U 20038AN  22053.85576536 -.00001132  00000-0 -57097-4 0  9999","MEAN_ANOMALY":"305.4245","OBJECT_NAME":"STARLINK-1509","COUNTRY_CODE":"US","INCLINATION":"53.0542","OBJECT_ID":"2020-038AN","BSTAR":"-0.00005709700000","CENTER_NAME":"EARTH","SEMIMAJOR_AXIS":"6925.361","TLE_LINE2":"2 45766  53.0542   1.8982 0002094  54.6940 305.4245 15.06396098 94025","OBJECT_TYPE":"PAYLOAD","MEAN_MOTION_DDOT":"0.0000000000000","CLASSIFICATION_TYPE":"U","RCS_SIZE":"LARGE","MEAN_ELEMENT_THEORY":"SGP4","DECAY_DATE":null,"NORAD_CAT_ID":"45766","EPOCH":"2022-02-22T20:32:18.127104","RA_OF_ASC_NODE":"1.8982","PERIOD":"95.592","APOAPSIS":"548.676","MEAN_MOTION":"15.06396098","PERIAPSIS":"545.775","REF_FRAME":"TEME"},{"OBJECT_ID":"2020-038AP","INCLINATION":"53.0566","CENTER_NAME":"EARTH","BSTAR":"-0.00000281560000","TLE_LINE2":"2 45767  53.0566   1.9335 0001888  59.5721 300.5454 15.06397101 94020","SEMIMAJOR_AXIS":"6925.357","ELEMENT_SET_NO":"999","SITE":"AFETR","MEAN_MOTION_DOT":"-0.00000324","EPHEMERIS_TYPE":"0","OBJECT_NAME":"STARLINK-1511","TLE_LINE1":"1 45767U 20038AP  22053.84839997 -.00000324  00000-0 -28156-5 0  9999","MEAN_ANOMALY":"300.5454","COUNTRY_CODE":"US","ARG_OF_PERICENTER":"59.5721","LAUNCH_DATE":"2020-06-13","REV_AT_EPOCH":"9402","TIME_SYSTEM":"UTC","FILE":"3314780","ECCENTRICITY":"0.00018880","GP_ID":"196681974","MEAN_MOTION":"15.06397101","PERIAPSIS":"545.915","REF_FRAME":"TEME","EPOCH":"2022-02-22T20:21:41.757408","PERIOD":"95.592","RA_OF_ASC_NODE":"1.9335","APOAPSIS":"548.530","MEAN_ELEMENT_THEORY":"SGP4","RCS_SIZE":"LARGE","DECAY_DATE":null,"NORAD_CAT_ID":"45767","OBJECT_TYPE":"PAYLOAD","CLASSIFICATION_TYPE":"U","MEAN_MOTION_DDOT":"0.0000000000000"},{"SITE":"AFETR","ELEMENT_SET_NO":"999","MEAN_MOTION_DOT":"0.00001412","EPHEMERIS_TYPE":"0","OBJECT_NAME":"STARLINK-1521","MEAN_ANOMALY":"302.3001","TLE_LINE1":"1 45768U 20038AQ  22053.89631401  .00001412  00000-0  11367-3 0  9996","COUNTRY_CODE":"US","INCLINATION":"53.0548","OBJECT_ID":"2020-038AQ","CENTER_NAME":"EARTH","BSTAR":"0.00011367000000","TLE_LINE2":"2 45768  53.0548   1.7267 0001676  57.8151 302.3001 15.06397649 94043","SEMIMAJOR_AXIS":"6925.356","FILE":"3314780","TIME_SYSTEM":"UTC","ECCENTRICITY":"0.00016760","GP_ID":"196682224","ARG_OF_PERICENTER":"57.8151","LAUNCH_DATE":"2020-06-13","REV_AT_EPOCH":"9404","EPOCH":"2022-02-22T21:30:41.530464","PERIOD":"95.592","RA_OF_ASC_NODE":"1.7267","APOAPSIS":"548.381","MEAN_MOTION":"15.06397649","PERIAPSIS":"546.060","REF_FRAME":"TEME","OBJECT_TYPE":"PAYLOAD","CLASSIFICATION_TYPE":"U","MEAN_MOTION_DDOT":"0.0000000000000","MEAN_ELEMENT_THEORY":"SGP4","RCS_SIZE":"LARGE","DECAY_DATE":null,"NORAD_CAT_ID":"45768"},{"INCLINATION":"53.0556","OBJECT_ID":"2020-038AR","TLE_LINE2":"2 45769  53.0556  24.2928 0001876  54.0705 306.0458 15.06390743 93676","SEMIMAJOR_AXIS":"6925.377","CENTER_NAME":"EARTH","BSTAR":"-0.00006956200000","ELEMENT_SET_NO":"999","SITE":"AFETR","MEAN_MOTION_DOT":"-0.00001317","EPHEMERIS_TYPE":"0","COUNTRY_CODE":"US","OBJECT_NAME":"STARLINK-1459","MEAN_ANOMALY":"306.0458","TLE_LINE1":"1 45769U 20038AR  22053.32315363 -.00001317  00000-0 -69562-4 0  9998","ARG_OF_PERICENTER":"54.0705","LAUNCH_DATE":"2020-06-13","REV_AT_EPOCH":"9367","TIME_SYSTEM":"UTC","FILE":"3313833","GP_ID":"196638758","ECCENTRICITY":"0.00018760","PERIAPSIS":"545.943","MEAN_MOTION":"15.06390743","REF_FRAME":"TEME","PERIOD":"95.593","RA_OF_ASC_NODE":"24.2928","EPOCH":"2022-02-22T07:45:20.473632","APOAPSIS":"548.541","DECAY_DATE":null,"MEAN_ELEMENT_THEORY":"SGP4","RCS_SIZE":"LARGE","NORAD_CAT_ID":"45769","OBJECT_TYPE":"PAYLOAD","CLASSIFICATION_TYPE":"U","MEAN_MOTION_DDOT":"0.0000000000000"},{"REV_AT_EPOCH":"9429","LAUNCH_DATE":"2020-06-13","ARG_OF_PERICENTER":"68.6481","ECCENTRICITY":"0.00016480","GP_ID":"196682726","FILE":"3314780","TIME_SYSTEM":"UTC","CENTER_NAME":"EARTH","BSTAR":"-0.00008977500000","TLE_LINE2":"2 45770  53.0536 342.1846 0001648  68.6481 291.4683 15.06387929 94294","SEMIMAJOR_AXIS":"6925.386","INCLINATION":"53.0536","OBJECT_ID":"2020-038AS","OBJECT_NAME":"STARLINK-1462","TLE_LINE1":"1 45770U 20038AS  22053.79031947 -.00001618  00000-0 -89775-4 0  9996","MEAN_ANOMALY":"291.4683","COUNTRY_CODE":"US","SITE":"AFETR","MEAN_MOTION_DOT":"-0.00001618","ELEMENT_SET_NO":"999","EPHEMERIS_TYPE":"0","NORAD_CAT_ID":"45770","MEAN_ELEMENT_THEORY":"SGP4","RCS_SIZE":"LARGE","DECAY_DATE":null,"CLASSIFICATION_TYPE":"U","MEAN_MOTION_DDOT":"0.0000000000000","OBJECT_TYPE":"PAYLOAD","REF_FRAME":"TEME","MEAN_MOTION":"15.06387929","PERIAPSIS":"546.109","APOAPSIS":"548.392","EPOCH":"2022-02-22T18:58:03.602208","PERIOD":"95.593","RA_OF_ASC_NODE":"342.1846"},{"ARG_OF_PERICENTER":"64.8500","REV_AT_EPOCH":"9426","LAUNCH_DATE":"2020-06-13","FILE":"3314780","TIME_SYSTEM":"UTC","GP_ID":"196681474","ECCENTRICITY":"0.00016790","INCLINATION":"53.0567","OBJECT_ID":"2020-038AT","SEMIMAJOR_AXIS":"6925.401","TLE_LINE2":"2 45771  53.0567 343.1202 0001679  64.8500 295.2663 15.06382845 94269","BSTAR":"-0.00000891390000","CENTER_NAME":"EARTH","EPHEMERIS_TYPE":"0","MEAN_MOTION_DOT":"-0.00000414","SITE":"AFETR","ELEMENT_SET_NO":"999","COUNTRY_CODE":"US","MEAN_ANOMALY":"295.2663","TLE_LINE1":"1 45771U 20038AT  22053.58486773 -.00000414  00000-0 -89139-5 0  9993","OBJECT_NAME":"STARLINK-1463","DECAY_DATE":null,"RCS_SIZE":"LARGE","MEAN_ELEMENT_THEORY":"SGP4","NORAD_CAT_ID":"45771","OBJECT_TYPE":"PAYLOAD","MEAN_MOTION_DDOT":"0.0000000000000","CLASSIFICATION_TYPE":"U","PERIAPSIS":"546.103","MEAN_MOTION":"15.06382845","REF_FRAME":"TEME","PERIOD":"95.593","RA_OF_ASC_NODE":"343.1202","EPOCH":"2022-02-22T14:02:12.571872","APOAPSIS":"548.429"},{"OBJECT_ID":"2020-038AU","INCLINATION":"53.0544","SEMIMAJOR_AXIS":"6925.381","TLE_LINE2":"2 45772  53.0544 343.4577 0001545  69.6234 290.4921 15.06389378 95377","BSTAR":"-0.00004872600000","CENTER_NAME":"EARTH","EPHEMERIS_TYPE":"0","SITE":"AFETR","MEAN_MOTION_DOT":"-0.00001007","ELEMENT_SET_NO":"999","COUNTRY_CODE":"US","TLE_LINE1":"1 45772U 20038AU  22053.50744536 -.00001007  00000-0 -48726-4 0  9995","MEAN_ANOMALY":"290.4921","OBJECT_NAME":"STARLINK-1470","ARG_OF_PERICENTER":"69.6234","LAUNCH_DATE":"2020-06-13","REV_AT_EPOCH":"9537","FILE":"3314046","TIME_SYSTEM":"UTC","GP_ID":"196647025","ECCENTRICITY":"0.00015450","PERIAPSIS":"546.176","MEAN_MOTION":"15.06389378","REF_FRAME":"TEME","RA_OF_ASC_NODE":"343.4577","PERIOD":"95.593","EPOCH":"2022-02-22T12:10:43.279104","APOAPSIS":"548.316","DECAY_DATE":null,"RCS_SIZE":"LARGE","MEAN_ELEMENT_THEORY":"SGP4","NORAD_CAT_ID":"45772","OBJECT_TYPE":"PAYLOAD","MEAN_MOTION_DDOT":"0.0000000000000","CLASSIFICATION_TYPE":"U"},{"OBJECT_ID":"2020-038AV","INCLINATION":"53.0565","BSTAR":"-0.00001414500000","CENTER_NAME":"EARTH","SEMIMAJOR_AXIS":"6925.383","TLE_LINE2":"2 45773  53.0565 342.0058 0001760  61.1445 298.9721 15.06388786 94316","EPHEMERIS_TYPE":"0","SITE":"AFETR","ELEMENT_SET_NO":"999","MEAN_MOTION_DOT":"-0.00000492","TLE_LINE1":"1 45773U 20038AV  22053.83181821 -.00000492  00000-0 -14145-4 0  9999","MEAN_ANOMALY":"298.9721","OBJECT_NAME":"STARLINK-1482","COUNTRY_CODE":"US","ARG_OF_PERICENTER":"61.1445","REV_AT_EPOCH":"9431","LAUNCH_DATE":"2020-06-13","FILE":"3314780","TIME_SYSTEM":"UTC","ECCENTRICITY":"0.00017600","GP_ID":"196682976","MEAN_MOTION":"15.06388786","PERIAPSIS":"546.029","REF_FRAME":"TEME","EPOCH":"2022-02-22T19:57:49.093344","PERIOD":"95.593","RA_OF_ASC_NODE":"342.0058","APOAPSIS":"548.467","RCS_SIZE":"LARGE","MEAN_ELEMENT_THEORY":"SGP4","DECAY_DATE":null,"NORAD_CAT_ID":"45773","OBJECT_TYPE":"PAYLOAD","MEAN_MOTION_DDOT":"0.0000000000000","CLASSIFICATION_TYPE":"U"},{"ELEMENT_SET_NO":"999","SITE":"AFETR","MEAN_MOTION_DOT":"-0.00002647","EPHEMERIS_TYPE":"0","COUNTRY_CODE":"US","OBJECT_NAME":"STARLINK-1485","MEAN_ANOMALY":"299.3257","TLE_LINE1":"1 45774U 20038AW  22053.73598824 -.00002647  00000-0 -15896-3 0  9991","OBJECT_ID":"2020-038AW","INCLINATION":"53.0572","TLE_LINE2":"2 45774  53.0572 342.4284 0001717  60.7903 299.3257 15.06384935 94294","SEMIMAJOR_AXIS":"6925.395","CENTER_NAME":"EARTH","BSTAR":"-0.00015896000000","TIME_SYSTEM":"UTC","FILE":"3314780","GP_ID":"196683227","ECCENTRICITY":"0.00017170","ARG_OF_PERICENTER":"60.7903","LAUNCH_DATE":"2020-06-13","REV_AT_EPOCH":"9429","PERIOD":"95.593","RA_OF_ASC_NODE":"342.4284","EPOCH":"2022-02-22T17:39:49.383936","APOAPSIS":"548.449","PERIAPSIS":"546.071","MEAN_MOTION":"15.06384935","REF_FRAME":"TEME","OBJECT_TYPE":"PAYLOAD","CLASSIFICATION_TYPE":"U","MEAN_MOTION_DDOT":"0.0000000000000","DECAY_DATE":null,"MEAN_ELEMENT_THEORY":"SGP4","RCS_SIZE":"LARGE","NORAD_CAT_ID":"45774"},{"ARG_OF_PERICENTER":"66.4018","LAUNCH_DATE":"2020-06-13","REV_AT_EPOCH":"9431","TIME_SYSTEM":"UTC","FILE":"3314780","GP_ID":"196681975","ECCENTRICITY":"0.00015570","INCLINATION":"53.0560","OBJECT_ID":"2020-038AX","TLE_LINE2":"2 45775  53.0560 342.1214 0001557  66.4018 293.7134 15.06392139 94314","SEMIMAJOR_AXIS":"6925.373","CENTER_NAME":"EARTH","BSTAR":"-0.00004026900000","MEAN_MOTION_DOT":"-0.00000881","SITE":"AFETR","ELEMENT_SET_NO":"999","EPHEMERIS_TYPE":"0","COUNTRY_CODE":"US","OBJECT_NAME":"STARLINK-1488","TLE_LINE1":"1 45775U 20038AX  22053.80601278 -.00000881  00000-0 -40269-4 0  9999","MEAN_ANOMALY":"293.7134","DECAY_DATE":null,"MEAN_ELEMENT_THEORY":"SGP4","RCS_SIZE":"LARGE","NORAD_CAT_ID":"45775","OBJECT_TYPE":"PAYLOAD","CLASSIFICATION_TYPE":"U","MEAN_MOTION_DDOT":"0.0000000000000","PERIAPSIS":"546.159","MEAN_MOTION":"15.06392139","REF_FRAME":"TEME","RA_OF_ASC_NODE":"342.1214","PERIOD":"95.593","EPOCH":"2022-02-22T19:20:39.504192","APOAPSIS":"548.316"}];
